# Synthetic Starlink-shell TLE bundle (20 sats, 550 km, 53 deg incl.)
# epoch: 2026-05-23T12:00:00 UTC
# regenerate: python scripts/make_synthetic_tle.py --n 20 --epoch 2026-05-23T12:00:00

SYNTH-SL-00
1 70000U          26143.50000000  .00000000  00000-0  10000-4 0    06
2 70000  53.0000   0.0000 0001000   0.0000   0.0000 15.05490646    08
SYNTH-SL-01
1 70001U          26143.50000000  .00000000  00000-0  10000-4 0    07
2 70001  53.0000   3.1579 0001000   0.0000  18.0000 15.05490646    03
SYNTH-SL-02
1 70002U          26143.50000000  .00000000  00000-0  10000-4 0    08
2 70002  53.0000   6.3158 0001000   0.0000  36.0000 15.05490646    02
SYNTH-SL-03
1 70003U          26143.50000000  .00000000  00000-0  10000-4 0    09
2 70003  53.0000   9.4737 0001000   0.0000  54.0000 15.05490646    00
SYNTH-SL-04
1 70004U          26143.50000000  .00000000  00000-0  10000-4 0    00
2 70004  53.0000  12.6316 0001000   0.0000  72.0000 15.05490646    00
SYNTH-SL-05
1 70005U          26143.50000000  .00000000  00000-0  10000-4 0    01
2 70005  53.0000  15.7895 0001000   0.0000  90.0000 15.05490646    07
SYNTH-SL-06
1 70006U          26143.50000000  .00000000  00000-0  10000-4 0    02
2 70006  53.0000  18.9474 0001000   0.0000 108.0000 15.05490646    06
SYNTH-SL-07
1 70007U          26143.50000000  .00000000  00000-0  10000-4 0    03
2 70007  53.0000  22.1053 0001000   0.0000 126.0000 15.05490646    07
SYNTH-SL-08
1 70008U          26143.50000000  .00000000  00000-0  10000-4 0    04
2 70008  53.0000  25.2632 0001000   0.0000 144.0000 15.05490646    05
SYNTH-SL-09
1 70009U          26143.50000000  .00000000  00000-0  10000-4 0    05
2 70009  53.0000  28.4211 0001000   0.0000 162.0000 15.05490646    04
SYNTH-SL-10
1 70010U          26143.50000000  .00000000  00000-0  10000-4 0    07
2 70010  53.0000  31.5789 0001000   0.0000 180.0000 15.05490646    01
SYNTH-SL-11
1 70011U          26143.50000000  .00000000  00000-0  10000-4 0    08
2 70011  53.0000  34.7368 0001000   0.0000 198.0000 15.05490646    09
SYNTH-SL-12
1 70012U          26143.50000000  .00000000  00000-0  10000-4 0    09
2 70012  53.0000  37.8947 0001000   0.0000 216.0000 15.05490646    08
SYNTH-SL-13
1 70013U          26143.50000000  .00000000  00000-0  10000-4 0    00
2 70013  53.0000  41.0526 0001000   0.0000 234.0000 15.05490646    09
SYNTH-SL-14
1 70014U          26143.50000000  .00000000  00000-0  10000-4 0    01
2 70014  53.0000  44.2105 0001000   0.0000 252.0000 15.05490646    08
SYNTH-SL-15
1 70015U          26143.50000000  .00000000  00000-0  10000-4 0    02
2 70015  53.0000  47.3684 0001000   0.0000 270.0000 15.05490646    05
SYNTH-SL-16
1 70016U          26143.50000000  .00000000  00000-0  10000-4 0    03
2 70016  53.0000  50.5263 0001000   0.0000 288.0000 15.05490646    04
SYNTH-SL-17
1 70017U          26143.50000000  .00000000  00000-0  10000-4 0    04
2 70017  53.0000  53.6842 0001000   0.0000 306.0000 15.05490646    03
SYNTH-SL-18
1 70018U          26143.50000000  .00000000  00000-0  10000-4 0    05
2 70018  53.0000  56.8421 0001000   0.0000 324.0000 15.05490646    02
SYNTH-SL-19
1 70019U          26143.50000000  .00000000  00000-0  10000-4 0    06
2 70019  53.0000  60.0000 0001000   0.0000 342.0000 15.05490646    03
